{
  "type": "FeatureCollection",
  "features": [
    {
      "type": "Feature",
      "properties": {
        "norad_id": 33986,
        "name": "COSMOS 2251 DEB",
        "group": "cosmos-2251-debris",
        "lat": -37.82628705333991,
        "lon": -90.82835169312207,
        "alt_km": 728.9662154065545,
        "timestamp": "2025-12-23T20:42:37.469287+00:00",
        "meta_object_name": "COSMOS 2251 DEB",
        "meta_object_id": "1993-036FV",
        "meta_epoch": "2025-12-22T20:14:08.581632",
        "meta_mean_motion": 14.43249769,
        "meta_eccentricity": 0.00409947,
        "meta_inclination": 74.037,
        "meta_ra_of_asc_node": 283.9054,
        "meta_arg_of_pericenter": 354.4588,
        "meta_mean_anomaly": 69.9214,
        "meta_ephemeris_type": 0,
        "meta_classification_type": "U",
        "meta_norad_cat_id": 33986,
        "meta_element_set_no": 999,
        "meta_rev_at_epoch": 88174,
        "meta_bstar": 0.00065241854,
        "meta_mean_motion_dot": 2.192e-05,
        "meta_mean_motion_ddot": 0,
        "tle_line1": "1 33986U 93036FV  25356.84315488  .00002192  00000+0  65242-3 0  9997",
        "tle_line2": "2 33986  74.0370 283.9054 0040994 354.4588  69.9214 14.43249769881744"
      },
      "geometry": {
        "type": "Point",
        "coordinates": [
          -90.82835169312207,
          -37.82628705333991
        ]
      }
    },
    {
      "type": "Feature",
      "properties": {
        "norad_id": 33990,
        "name": "COSMOS 2251 DEB",
        "group": "cosmos-2251-debris",
        "lat": -55.238682366505714,
        "lon": 112.67959904122303,
        "alt_km": 868.1661702598612,
        "timestamp": "2025-12-23T20:42:37.469297+00:00",
        "meta_object_name": "COSMOS 2251 DEB",
        "meta_object_id": "1993-036FZ",
        "meta_epoch": "2025-12-22T20:43:11.390592",
        "meta_mean_motion": 13.50010799,
        "meta_eccentricity": 0.04073668,
        "meta_inclination": 73.9284,
        "meta_ra_of_asc_node": 269.7414,
        "meta_arg_of_pericenter": 288.2287,
        "meta_mean_anomaly": 137.5085,
        "meta_ephemeris_type": 0,
        "meta_classification_type": "U",
        "meta_norad_cat_id": 33990,
        "meta_element_set_no": 999,
        "meta_rev_at_epoch": 82866,
        "meta_bstar": 0.00070828878,
        "meta_mean_motion_dot": 7.3e-06,
        "meta_mean_motion_ddot": 0,
        "tle_line1": "1 33990U 93036FZ  25356.86332628  .00000730  00000+0  70829-3 0  9992",
        "tle_line2": "2 33990  73.9284 269.7414 0407366 288.2287 137.5085 13.50010799828669"
      },
      "geometry": {
        "type": "Point",
        "coordinates": [
          112.67959904122303,
          -55.238682366505714
        ]
      }
    },
    {
      "type": "Feature",
      "properties": {
        "norad_id": 33992,
        "name": "COSMOS 2251 DEB",
        "group": "cosmos-2251-debris",
        "lat": 15.959168732643356,
        "lon": -39.020179142179025,
        "alt_km": 651.6571442305767,
        "timestamp": "2025-12-23T20:42:37.469307+00:00",
        "meta_object_name": "COSMOS 2251 DEB",
        "meta_object_id": "1993-036GB",
        "meta_epoch": "2025-12-23T04:18:33.890688",
        "meta_mean_motion": 14.66293117,
        "meta_eccentricity": 0.00518305,
        "meta_inclination": 74.0248,
        "meta_ra_of_asc_node": 317.5983,
        "meta_arg_of_pericenter": 72.224,
        "meta_mean_anomaly": 299.1667,
        "meta_ephemeris_type": 0,
        "meta_classification_type": "U",
        "meta_norad_cat_id": 33992,
        "meta_element_set_no": 999,
        "meta_rev_at_epoch": 89278,
        "meta_bstar": 0.00082060275,
        "meta_mean_motion_dot": 4.589e-05,
        "meta_mean_motion_ddot": 0,
        "tle_line1": "1 33992U 93036GB  25357.17955892  .00004589  00000+0  82060-3 0  9999",
        "tle_line2": "2 33992  74.0248 317.5983 0051830  72.2240 299.1667 14.66293117892787"
      },
      "geometry": {
        "type": "Point",
        "coordinates": [
          -39.020179142179025,
          15.959168732643356
        ]
      }
    },
    {
      "type": "Feature",
      "properties": {
        "norad_id": 33994,
        "name": "COSMOS 2251 DEB",
        "group": "cosmos-2251-debris",
        "lat": 7.926449572771269,
        "lon": 172.1092763498198,
        "alt_km": 749.0464998169591,
        "timestamp": "2025-12-23T20:42:37.469317+00:00",
        "meta_object_name": "COSMOS 2251 DEB",
        "meta_object_id": "1993-036GD",
        "meta_epoch": "2025-12-23T04:33:50.353632",
        "meta_mean_motion": 14.41220754,
        "meta_eccentricity": 0.00239569,
        "meta_inclination": 74.0415,
        "meta_ra_of_asc_node": 171.0706,
        "meta_arg_of_pericenter": 303.6324,
        "meta_mean_anomaly": 175.3034,
        "meta_ephemeris_type": 0,
        "meta_classification_type": "U",
        "meta_norad_cat_id": 33994,
        "meta_element_set_no": 999,
        "meta_rev_at_epoch": 88570,
        "meta_bstar": 8.3228724e-05,
        "meta_mean_motion_dot": 2.43e-06,
        "meta_mean_motion_ddot": 0,
        "tle_line1": "1 33994U 93036GD  25357.19016613  .00000243  00000+0  83229-4 0  9994",
        "tle_line2": "2 33994  74.0415 171.0706 0023956 303.6324 175.3034 14.41220754885700"
      },
      "geometry": {
        "type": "Point",
        "coordinates": [
          172.1092763498198,
          7.926449572771269
        ]
      }
    },
    {
      "type": "Feature",
      "properties": {
        "norad_id": 33995,
        "name": "COSMOS 2251 DEB",
        "group": "cosmos-2251-debris",
        "lat": -7.794210363852233,
        "lon": -78.75500137133551,
        "alt_km": 769.9096641947153,
        "timestamp": "2025-12-23T20:42:37.469328+00:00",
        "meta_object_name": "COSMOS 2251 DEB",
        "meta_object_id": "1993-036GE",
        "meta_epoch": "2025-12-22T17:04:09.968736",
        "meta_mean_motion": 14.34818355,
        "meta_eccentricity": 0.00594488,
        "meta_inclination": 74.0618,
        "meta_ra_of_asc_node": 101.1095,
        "meta_arg_of_pericenter": 112.7002,
        "meta_mean_anomaly": 248.045,
        "meta_ephemeris_type": 0,
        "meta_classification_type": "U",
        "meta_norad_cat_id": 33995,
        "meta_element_set_no": 999,
        "meta_rev_at_epoch": 87662,
        "meta_bstar": 0.00077827353,
        "meta_mean_motion_dot": 2.228e-05,
        "meta_mean_motion_ddot": 0,
        "tle_line1": "1 33995U 93036GE  25356.71122649  .00002228  00000+0  77827-3 0  9990",
        "tle_line2": "2 33995  74.0618 101.1095 0059448 112.7002 248.0450 14.34818355876621"
      },
      "geometry": {
        "type": "Point",
        "coordinates": [
          -78.75500137133551,
          -7.794210363852233
        ]
      }
    },
    {
      "type": "Feature",
      "properties": {
        "norad_id": 33999,
        "name": "COSMOS 2251 DEB",
        "group": "cosmos-2251-debris",
        "lat": 44.74656460866689,
        "lon": 11.97360589985496,
        "alt_km": 587.5598227401888,
        "timestamp": "2025-12-23T20:42:37.469338+00:00",
        "meta_object_name": "COSMOS 2251 DEB",
        "meta_object_id": "1993-036GJ",
        "meta_epoch": "2025-12-23T00:41:47.266656",
        "meta_mean_motion": 14.83551795,
        "meta_eccentricity": 0.0044344,
        "meta_inclination": 73.917,
        "meta_ra_of_asc_node": 210.2534,
        "meta_arg_of_pericenter": 102.697,
        "meta_mean_anomaly": 257.917,
        "meta_ephemeris_type": 0,
        "meta_classification_type": "U",
        "meta_norad_cat_id": 33999,
        "meta_element_set_no": 999,
        "meta_rev_at_epoch": 89403,
        "meta_bstar": 0.0012912991,
        "meta_mean_motion_dot": 0.00010803,
        "meta_mean_motion_ddot": 0,
        "tle_line1": "1 33999U 93036GJ  25357.02901929  .00010803  00000+0  12913-2 0  9997",
        "tle_line2": "2 33999  73.9170 210.2534 0044344 102.6970 257.9170 14.83551795894036"
      },
      "geometry": {
        "type": "Point",
        "coordinates": [
          11.97360589985496,
          44.74656460866689
        ]
      }
    },
    {
      "type": "Feature",
      "properties": {
        "norad_id": 34001,
        "name": "COSMOS 2251 DEB",
        "group": "cosmos-2251-debris",
        "lat": 67.96568884149198,
        "lon": -53.86159532666701,
        "alt_km": 762.2714955544961,
        "timestamp": "2025-12-23T20:42:37.469348+00:00",
        "meta_object_name": "COSMOS 2251 DEB",
        "meta_object_id": "1993-036GL",
        "meta_epoch": "2025-12-23T00:24:47.068416",
        "meta_mean_motion": 14.37110028,
        "meta_eccentricity": 0.00203867,
        "meta_inclination": 74.0388,
        "meta_ra_of_asc_node": 262.6898,
        "meta_arg_of_pericenter": 341.6562,
        "meta_mean_anomaly": 39.0911,
        "meta_ephemeris_type": 0,
        "meta_classification_type": "U",
        "meta_norad_cat_id": 34001,
        "meta_element_set_no": 999,
        "meta_rev_at_epoch": 88294,
        "meta_bstar": 0.0001733119,
        "meta_mean_motion_dot": 4.9e-06,
        "meta_mean_motion_ddot": 0,
        "tle_line1": "1 34001U 93036GL  25357.01721144  .00000490  00000+0  17331-3 0  9991",
        "tle_line2": "2 34001  74.0388 262.6898 0020386 341.6562  39.0911 14.37110028882948"
      },
      "geometry": {
        "type": "Point",
        "coordinates": [
          -53.86159532666701,
          67.96568884149198
        ]
      }
    }
  ]
}